[Satellite]
VERSION=1.1
NAME=EXACTVIEW 9
NICKNAME=EXACTVIEW 9
TLE1=1 40936U 15052G   18020.75029543  .00000773  00000-0  19256-4 0  9995
TLE2=2 40936   6.0067 125.0536 0011098  68.2234 291.9197 14.76341241125143
